[{"OBJECT_NAME":"YAOGAN-43 01G","OBJECT_ID":"2024-148G","EPOCH":"2026-03-09T10:38:37.087584","MEAN_MOTION":15.28332833,"ECCENTRICITY":0.00073829,"INCLINATION":35.0006,"RA_OF_ASC_NODE":62.0013,"ARG_OF_PERICENTER":306.3543,"MEAN_ANOMALY":53.6492,"EPHEMERIS_TYPE":0,"CLASSIFICATION_TYPE":"U","NORAD_CAT_ID":60464,"ELEMENT_SET_NO":999,"REV_AT_EPOCH":8700,"BSTAR":0.00035872736,"MEAN_MOTION_DOT":0.00010133,"MEAN_MOTION_DDOT":0},{"OBJECT_NAME":"STARLINK-33817","OBJECT_ID":"2025-076Q","EPOCH":"2026-03-09T02:18:45.876384","MEAN_MOTION":15.2757819,"ECCENTRICITY":0.00013701,"INCLINATION":43.0025,"RA_OF_ASC_NODE":324.7015,"ARG_OF_PERICENTER":281.3058,"MEAN_ANOMALY":78.764,"EPHEMERIS_TYPE":0,"CLASSIFICATION_TYPE":"U","NORAD_CAT_ID":63583,"ELEMENT_SET_NO":999,"REV_AT_EPOCH":5173,"BSTAR":0.0013443181,"MEAN_MOTION_DOT":0.00036914,"MEAN_MOTION_DDOT":0}]
